OBJECT_NAME,OBJECT_ID,EPOCH,MEAN_MOTION,ECCENTRICITY,INCLINATION,RA_OF_ASC_NODE,ARG_OF_PERICENTER,MEAN_ANOMALY,EPHEMERIS_TYPE,CLASSIFICATION_TYPE,NORAD_CAT_ID,ELEMENT_SET_NO,REV_AT_EPOCH,BSTAR,MEAN_MOTION_DOT,MEAN_MOTION_DDOT
GPS BIIF-9,2015-013A,2024-01-20T13:37:17.140800,2.00574723,.0086519,53.4013,240.5589,28.5069,332.0308,0,U,40534,999,6462,0,.71E-6,0
GSAT0203 (GALILEO 7),2015-017A,2024-01-19T08:04:50.024640,1.70475727,.0005409,56.9196,5.5411,274.3005,85.6396,0,U,40544,999,5420,0,-.87E-6,0
GSAT0204 (GALILEO 8),2015-017B,2024-01-20T04:15:16.583328,1.70475440,.0004913,56.9261,5.5330,264.4560,95.4887,0,U,40545,999,1726,0,-.89E-6,0
GPS BIIF-10,2015-033A,2024-01-20T05:31:35.359968,2.00574706,.0091517,54.7267,303.1264,16.0510,344.2598,0,U,40730,999,6236,0,-.76E-6,0
GSAT0205 (GALILEO 9),2015-045A,2024-01-19T22:42:09.552960,1.70473092,.0006301,55.2893,245.8942,36.8709,323.2460,0,U,40889,999,5202,0,.55E-6,0
GSAT0206 (GALILEO 10),2015-045B,2024-01-20T03:59:52.791936,1.70473227,.0004275,55.2881,245.8836,34.8956,325.2067,0,U,40890,999,5205,0,.56E-6,0
GPS BIIF-11,2015-062A,2024-01-20T06:46:01.095168,2.00562260,.0094421,56.2761,64.9079,224.1003,135.1994,0,U,41019,999,6020,0,-.66E-6,0
ELEKTRO-L 2,2015-074A,2024-01-20T09:16:31.206720,1.00271188,.0003637,4.4620,81.2680,195.1254,327.5176,0,U,41105,999,2969,0,-.116E-5,0
GSAT0209 (GALILEO 12),2015-079A,2024-01-18T13:51:05.418720,1.70474723,.000252,55.3587,125.4547,309.0026,50.9607,0,U,41174,999,4976,0,-.15E-6,0
GSAT0208 (GALILEO 11),2015-079B,2024-01-19T09:12:05.874048,1.70474220,.0004323,55.3574,125.4304,292.0164,67.9203,0,U,41175,999,5019,0,-.23E-6,0
GPS BIIF-12,2016-007A,2024-01-19T20:49:01.885152,2.00568998,.0076137,55.0671,124.3853,235.2928,123.9800,0,U,41328,999,5820,0,-.34E-6,0
GSAT0211 (GALILEO 14),2016-030A,2024-01-20T02:12:54.281088,1.70473307,.0004173,55.4357,245.8808,8.7062,351.3752,0,U,41549,999,4768,0,.56E-6,0
GSAT0210 (GALILEO 13),2016-030B,2024-01-19T19:07:41.118816,1.70473475,.000204,55.4354,245.8900,351.3572,8.7123,0,U,41550,999,4767,0,.54E-6,0
GSAT0212 (GALILEO 16),2016-069B,2024-01-19T21:33:52.382880,1.70474927,.0001535,55.0204,125.4530,325.6450,34.3254,0,U,41860,999,4466,0,-.28E-6,0
GSAT0213 (GALILEO 17),2016-069C,2024-01-19T02:13:15.569184,1.70473399,.0003757,55.0222,125.4817,260.6405,99.3006,0,U,41861,999,4451,0,-.21E-6,0
GSAT0214 (GALILEO 18),2016-069D,2024-01-20T09:53:46.335840,1.70473845,.0005143,55.0221,125.4390,275.6498,84.2702,0,U,41862,999,4466,0,-.32E-6,0
GOES 16,2016-071A,2024-01-20T10:42:14.043168,1.00270919,.0001225,0.0758,251.5923,72.6635,240.3909,0,U,41866,999,2629,0,-.243E-5,0
GSAT-17,2017-040B,2024-01-20T13:10:32.836224,1.00271207,.0006069,0.0414,256.9749,11.8421,141.7329,0,U,42815,999,2397,0,-.254E-5,0
GSAT0215 (GALILEO 19),2017-079A,2024-01-19T17:29:03.889536,1.70473975,.0001601,55.4133,245.7147,15.7842,344.2935,0,U,43055,999,3799,0,.54E-6,0
GSAT0216 (GALILEO 20),2017-079B,2024-01-18T20:19:53.532768,1.70474110,.0002638,55.4137,245.7390,328.6407,31.4138,0,U,43056,999,3799,0,.5E-6,0
GSAT0217 (GALILEO 21),2017-079C,2024-01-19T15:41:57.920640,1.70473993,.0002903,55.4110,245.7155,346.5131,13.5516,0,U,43057,999,3799,0,.54E-6,0
GOES 17,2018-022A,2024-01-20T14:39:58.576896,1.00271551,.0001907,0.0288,174.8874,102.0526,317.8414,0,U,43226,999,2161,0,-.86E-6,0
GSAT0221 (GALILEO 25),2018-060A,2024-01-20T08:38:50.821152,1.70475595,.0005936,57.2998,5.4763,287.3855,72.5499,0,U,43564,999,3418,0,-.89E-6,0
GSAT0222 (GALILEO 26),2018-060B,2024-01-18T19:39:07.427808,1.70475280,.0004872,57.3032,5.5191,265.0015,94.9452,0,U,43565,999,3420,0,-.85E-6,0
GSAT0219 (GALILEO 23),2018-060C,2024-01-20T05:08:21.265728,1.70475613,.0005225,57.3025,5.4836,293.8279,66.1179,0,U,43566,999,3420,0,-.89E-6,0
